{
  "type": "FeatureCollection",
  "features": [
    {
      "type": "Feature",
      "properties": {
        "norad_id": 34492,
        "name": "IRIDIUM 33 DEB",
        "group": "iridium-33-debris",
        "lat": -53.94307719694004,
        "lon": 160.42701170077092,
        "alt_km": 680.1827330017932,
        "timestamp": "2025-12-10T09:57:45.083172+00:00",
        "meta_object_name": "IRIDIUM 33 DEB",
        "meta_object_id": "1997-051GH",
        "meta_epoch": "2025-12-09T22:53:18.084192",
        "meta_mean_motion": 14.25612959,
        "meta_eccentricity": 0.0189305,
        "meta_inclination": 86.4737,
        "meta_ra_of_asc_node": 335.7548,
        "meta_arg_of_pericenter": 247.2306,
        "meta_mean_anomaly": 140.5705,
        "meta_ephemeris_type": 0,
        "meta_classification_type": "U",
        "meta_norad_cat_id": 34492,
        "meta_element_set_no": 999,
        "meta_rev_at_epoch": 85019,
        "meta_bstar": 0.0073091,
        "meta_mean_motion_dot": 0.00020944,
        "meta_mean_motion_ddot": 0,
        "tle_line1": "1 34492U 97051GH  25343.95368153  .00020944  00000+0  73091-2 0  9991",
        "tle_line2": "2 34492  86.4737 335.7548 0189305 247.2306 140.5705 14.25612959850193"
      },
      "geometry": {
        "type": "Point",
        "coordinates": [
          160.42701170077092,
          -53.94307719694004
        ]
      }
    },
    {
      "type": "Feature",
      "properties": {
        "norad_id": 34497,
        "name": "IRIDIUM 33 DEB",
        "group": "iridium-33-debris",
        "lat": 80.37563851464684,
        "lon": -149.17946643024902,
        "alt_km": 813.5748080502417,
        "timestamp": "2025-12-10T09:57:45.083182+00:00",
        "meta_object_name": "IRIDIUM 33 DEB",
        "meta_object_id": "1997-051GN",
        "meta_epoch": "2025-12-10T04:35:23.085888",
        "meta_mean_motion": 14.2744131,
        "meta_eccentricity": 0.0079065,
        "meta_inclination": 86.2779,
        "meta_ra_of_asc_node": 53.4903,
        "meta_arg_of_pericenter": 347.8917,
        "meta_mean_anomaly": 40.4515,
        "meta_ephemeris_type": 0,
        "meta_classification_type": "U",
        "meta_norad_cat_id": 34497,
        "meta_element_set_no": 999,
        "meta_rev_at_epoch": 86847,
        "meta_bstar": 0.00082191,
        "meta_mean_motion_dot": 2.102e-05,
        "meta_mean_motion_ddot": 0,
        "tle_line1": "1 34497U 97051GN  25344.19123942  .00002102  00000+0  82191-3 0  9996",
        "tle_line2": "2 34497  86.2779  53.4903 0079065 347.8917  40.4515 14.27441310868477"
      },
      "geometry": {
        "type": "Point",
        "coordinates": [
          -149.17946643024902,
          80.37563851464684
        ]
      }
    },
    {
      "type": "Feature",
      "properties": {
        "norad_id": 34508,
        "name": "IRIDIUM 33 DEB",
        "group": "iridium-33-debris",
        "lat": 15.609543370274771,
        "lon": -77.3875171815499,
        "alt_km": 719.3802451837682,
        "timestamp": "2025-12-10T09:57:45.083192+00:00",
        "meta_object_name": "IRIDIUM 33 DEB",
        "meta_object_id": "1997-051GZ",
        "meta_epoch": "2025-12-09T08:09:22.353120",
        "meta_mean_motion": 14.38378471,
        "meta_eccentricity": 0.00659121,
        "meta_inclination": 86.3702,
        "meta_ra_of_asc_node": 104.0845,
        "meta_arg_of_pericenter": 183.8965,
        "meta_mean_anomaly": 176.1729,
        "meta_ephemeris_type": 0,
        "meta_classification_type": "U",
        "meta_norad_cat_id": 34508,
        "meta_element_set_no": 999,
        "meta_rev_at_epoch": 87260,
        "meta_bstar": 0.0023049573,
        "meta_mean_motion_dot": 7.224e-05,
        "meta_mean_motion_ddot": 0,
        "tle_line1": "1 34508U 97051GZ  25343.33984205  .00007224  00000+0  23050-2 0  9999",
        "tle_line2": "2 34508  86.3702 104.0845 0065912 183.8965 176.1729 14.38378471872605"
      },
      "geometry": {
        "type": "Point",
        "coordinates": [
          -77.3875171815499,
          15.609543370274771
        ]
      }
    },
    {
      "type": "Feature",
      "properties": {
        "norad_id": 34521,
        "name": "IRIDIUM 33 DEB",
        "group": "iridium-33-debris",
        "lat": 45.99987888491067,
        "lon": -152.18753197695938,
        "alt_km": 678.6709614449155,
        "timestamp": "2025-12-10T09:57:45.083202+00:00",
        "meta_object_name": "IRIDIUM 33 DEB",
        "meta_object_id": "1997-051HN",
        "meta_epoch": "2025-12-10T04:25:46.194816",
        "meta_mean_motion": 14.63330037,
        "meta_eccentricity": 0.0001302,
        "meta_inclination": 86.38,
        "meta_ra_of_asc_node": 31.6727,
        "meta_arg_of_pericenter": 233.2821,
        "meta_mean_anomaly": 126.8271,
        "meta_ephemeris_type": 0,
        "meta_classification_type": "U",
        "meta_norad_cat_id": 34521,
        "meta_element_set_no": 999,
        "meta_rev_at_epoch": 88435,
        "meta_bstar": 0.0012474,
        "meta_mean_motion_dot": 6.461e-05,
        "meta_mean_motion_ddot": 0,
        "tle_line1": "1 34521U 97051HN  25344.18456244  .00006461  00000+0  12474-2 0  9995",
        "tle_line2": "2 34521  86.3800  31.6727 0001302 233.2821 126.8271 14.63330037884350"
      },
      "geometry": {
        "type": "Point",
        "coordinates": [
          -152.18753197695938,
          45.99987888491067
        ]
      }
    },
    {
      "type": "Feature",
      "properties": {
        "norad_id": 34525,
        "name": "IRIDIUM 33 DEB",
        "group": "iridium-33-debris",
        "lat": 56.00356630926118,
        "lon": -137.561297959984,
        "alt_km": 739.2928186000381,
        "timestamp": "2025-12-10T09:57:45.083213+00:00",
        "meta_object_name": "IRIDIUM 33 DEB",
        "meta_object_id": "1997-051HS",
        "meta_epoch": "2025-12-10T04:38:50.000928",
        "meta_mean_motion": 14.4289587,
        "meta_eccentricity": 0.0006705,
        "meta_inclination": 86.3727,
        "meta_ra_of_asc_node": 47.9303,
        "meta_arg_of_pericenter": 101.2221,
        "meta_mean_anomaly": 312.8304,
        "meta_ephemeris_type": 0,
        "meta_classification_type": "U",
        "meta_norad_cat_id": 34525,
        "meta_element_set_no": 999,
        "meta_rev_at_epoch": 88051,
        "meta_bstar": 0.0005256,
        "meta_mean_motion_dot": 1.775e-05,
        "meta_mean_motion_ddot": 0,
        "tle_line1": "1 34525U 97051HS  25344.19363427  .00001775  00000+0  52560-3 0  9994",
        "tle_line2": "2 34525  86.3727  47.9303 0006705 101.2221 312.8304 14.42895870880518"
      },
      "geometry": {
        "type": "Point",
        "coordinates": [
          -137.561297959984,
          56.00356630926118
        ]
      }
    },
    {
      "type": "Feature",
      "properties": {
        "norad_id": 34529,
        "name": "IRIDIUM 33 DEB",
        "group": "iridium-33-debris",
        "lat": 37.43862267212968,
        "lon": 39.193066712145665,
        "alt_km": 756.5321319330042,
        "timestamp": "2025-12-10T09:57:45.083222+00:00",
        "meta_object_name": "IRIDIUM 33 DEB",
        "meta_object_id": "1997-051HW",
        "meta_epoch": "2025-12-10T03:07:14.414880",
        "meta_mean_motion": 14.40612493,
        "meta_eccentricity": 0.0004471,
        "meta_inclination": 86.3643,
        "meta_ra_of_asc_node": 36.5243,
        "meta_arg_of_pericenter": 185.8587,
        "meta_mean_anomaly": 174.2561,
        "meta_ephemeris_type": 0,
        "meta_classification_type": "U",
        "meta_norad_cat_id": 34529,
        "meta_element_set_no": 999,
        "meta_rev_at_epoch": 88104,
        "meta_bstar": 0.00017155,
        "meta_mean_motion_dot": 5.67e-06,
        "meta_mean_motion_ddot": 0,
        "tle_line1": "1 34529U 97051HW  25344.13002795  .00000567  00000+0  17155-3 0  9999",
        "tle_line2": "2 34529  86.3643  36.5243 0004471 185.8587 174.2561 14.40612493881047"
      },
      "geometry": {
        "type": "Point",
        "coordinates": [
          39.193066712145665,
          37.43862267212968
        ]
      }
    },
    {
      "type": "Feature",
      "properties": {
        "norad_id": 34538,
        "name": "IRIDIUM 33 DEB",
        "group": "iridium-33-debris",
        "lat": -37.491553431834205,
        "lon": -170.56310032065457,
        "alt_km": 767.5073814466141,
        "timestamp": "2025-12-10T09:57:45.083232+00:00",
        "meta_object_name": "IRIDIUM 33 DEB",
        "meta_object_id": "1997-051JF",
        "meta_epoch": "2025-12-10T02:34:36.380064",
        "meta_mean_motion": 14.42622589,
        "meta_eccentricity": 0.0033099,
        "meta_inclination": 86.2772,
        "meta_ra_of_asc_node": 6.7088,
        "meta_arg_of_pericenter": 336.9894,
        "meta_mean_anomaly": 83.6155,
        "meta_ephemeris_type": 0,
        "meta_classification_type": "U",
        "meta_norad_cat_id": 34538,
        "meta_element_set_no": 999,
        "meta_rev_at_epoch": 87718,
        "meta_bstar": 0.0012469,
        "meta_mean_motion_dot": 4.187e-05,
        "meta_mean_motion_ddot": 0,
        "tle_line1": "1 34538U 97051JF  25344.10736551  .00004187  00000+0  12469-2 0  9994",
        "tle_line2": "2 34538  86.2772   6.7088 0033099 336.9894  83.6155 14.42622589877184"
      },
      "geometry": {
        "type": "Point",
        "coordinates": [
          -170.56310032065457,
          -37.491553431834205
        ]
      }
    }
  ]
}